[
    {
        "Altitude(m)": 610405.3304236094,
        "Argument of Periapsis(deg)": 0.0,
        "Eccentricity": 0.0,
        "Inclination(deg)": 60.0,
        "Latitude(deg)": 52.11129196768155,
        "Longitude(deg)": 157.47754491910223,
        "Mean Anomaly(deg)": 114.5455,
        "RAAN(deg)": 125.00000000000001,
        "Satellite Name": "Test1 557",
        "Satellite Number": 557,
        "Semi-Major Axis(m)": 6980739.136638005,
        "Time(s)": 0
    },
    {
        "Altitude(m)": 610321.902940144,
        "Argument of Periapsis(deg)": 0.00010418945913296404,
        "Eccentricity": 0.0,
        "Inclination(deg)": 60.0,
        "Latitude(deg)": 51.74600561127321,
        "Longitude(deg)": 158.24643742326128,
        "Mean Anomaly(deg)": 115.16560614546188,
        "RAAN(deg)": 124.99957995086027,
        "Satellite Name": "Test1 557",
        "Satellite Number": 557,
        "Semi-Major Axis(m)": 6980739.136638005,
        "Time(s)": 10
    },
    {
        "Altitude(m)": 610237.1113076685,
        "Argument of Periapsis(deg)": 0.0002083789182659281,
        "Eccentricity": 0.0,
        "Inclination(deg)": 60.0,
        "Latitude(deg)": 51.37520019832278,
        "Longitude(deg)": 159.0022773488657,
        "Mean Anomaly(deg)": 115.7857122909237,
        "RAAN(deg)": 124.99915990172053,
        "Satellite Name": "Test1 557",
        "Satellite Number": 557,
        "Semi-Major Axis(m)": 6980739.136638005,
        "Time(s)": 20
    },
    {
        "Altitude(m)": 610151.0057071865,
        "Argument of Periapsis(deg)": 0.00031256837739889213,
        "Eccentricity": 0.0,
        "Inclination(deg)": 60.0,
        "Latitude(deg)": 50.999034313530636,
        "Longitude(deg)": 159.7452578278931,
        "Mean Anomaly(deg)": 116.4058184363855,
        "RAAN(deg)": 124.99873985258078,
        "Satellite Name": "Test1 557",
        "Satellite Number": 557,
        "Semi-Major Axis(m)": 6980739.136638005,
        "Time(s)": 30
    },
    {
        "Altitude(m)": 610063.6371822049,
        "Argument of Periapsis(deg)": 0.0004167578365318562,
        "Eccentricity": 0.0,
        "Inclination(deg)": 60.0,
        "Latitude(deg)": 50.617662787619025,
        "Longitude(deg)": 160.4755796939574,
        "Mean Anomaly(deg)": 117.02592458184733,
        "RAAN(deg)": 124.99831980344105,
        "Satellite Name": "Test1 557",
        "Satellite Number": 557,
        "Semi-Major Axis(m)": 6980739.136638005,
        "Time(s)": 40
    },
    {
        "Altitude(m)": 609975.057614109,
        "Argument of Periapsis(deg)": 0.0005209472956648203,
        "Eccentricity": 0.0,
        "Inclination(deg)": 60.0,
        "Latitude(deg)": 50.23123667220526,
        "Longitude(deg)": 161.19344942366374,
        "Mean Anomaly(deg)": 117.64603072730914,
        "RAAN(deg)": 124.99789975430129,
        "Satellite Name": "Test1 557",
        "Satellite Number": 557,
        "Semi-Major Axis(m)": 6980739.136638005,
        "Time(s)": 50
    },
    {
        "Altitude(m)": 609885.3196971216,
        "Argument of Periapsis(deg)": 0.0006251367547977843,
        "Eccentricity": 0.0,
        "Inclination(deg)": 60.0,
        "Latitude(deg)": 49.83990322933294,
        "Longitude(deg)": 161.89907866162255,
        "Mean Anomaly(deg)": 118.26613687277096,
        "RAAN(deg)": 124.99747970516155,
        "Satellite Name": "Test1 557",
        "Satellite Number": 557,
        "Semi-Major Axis(m)": 6980739.136638005,
        "Time(s)": 60
    },
    {
        "Altitude(m)": 609794.4769127881,
        "Argument of Periapsis(deg)": 0.0007293262139307483,
        "Eccentricity": 0.0,
        "Inclination(deg)": 60.0,
        "Latitude(deg)": 49.44380593423484,
        "Longitude(deg)": 162.5926838147216,
        "Mean Anomaly(deg)": 118.8862430182328,
        "RAAN(deg)": 124.9970596560218,
        "Satellite Name": "Test1 557",
        "Satellite Number": 557,
        "Semi-Major Axis(m)": 6980739.136638005,
        "Time(s)": 70
    },
    {
        "Altitude(m)": 609702.5835041058,
        "Argument of Periapsis(deg)": 0.0008335156730637124,
        "Eccentricity": 0.0,
        "Inclination(deg)": 60.0,
        "Latitude(deg)": 49.043084489971804,
        "Longitude(deg)": 163.27448420084528,
        "Mean Anomaly(deg)": 119.50634916369464,
        "RAAN(deg)": 124.99663960688207,
        "Satellite Name": "Test1 557",
        "Satellite Number": 557,
        "Semi-Major Axis(m)": 6980739.136638005,
        "Time(s)": 80
    },
    {
        "Altitude(m)": 609609.6944492228,
        "Argument of Periapsis(deg)": 0.0009377051321966765,
        "Eccentricity": 0.0,
        "Inclination(deg)": 60.0,
        "Latitude(deg)": 48.63787485266169,
        "Longitude(deg)": 163.94470177552245,
        "Mean Anomaly(deg)": 120.1264553091565,
        "RAAN(deg)": 124.99621955774232,
        "Satellite Name": "Test1 557",
        "Satellite Number": 557,
        "Semi-Major Axis(m)": 6980739.136638005,
        "Time(s)": 90
    },
    {
        "Altitude(m)": 609515.865434761,
        "Argument of Periapsis(deg)": 0.0010418945913296407,
        "Eccentricity": 0.0,
        "Inclination(deg)": 60.0,
        "Latitude(deg)": 48.22830926609831,
        "Longitude(deg)": 164.6035609211015,
        "Mean Anomaly(deg)": 120.74656145461832,
        "RAAN(deg)": 124.99579950860259,
        "Satellite Name": "Test1 557",
        "Satellite Number": 557,
        "Semi-Major Axis(m)": 6980739.136638005,
        "Time(s)": 100
    },
    {
        "Altitude(m)": 609421.1528287567,
        "Argument of Periapsis(deg)": 0.0011460840504626045,
        "Eccentricity": 0.0,
        "Inclination(deg)": 60.0,
        "Latitude(deg)": 47.81451630463956,
        "Longitude(deg)": 165.25128678285853,
        "Mean Anomaly(deg)": 121.36666760008016,
        "RAAN(deg)": 124.99537945946284,
        "Satellite Name": "Test1 557",
        "Satellite Number": 557,
        "Semi-Major Axis(m)": 6980739.136638005,
        "Time(s)": 110
    },
    {
        "Altitude(m)": 609325.6136532379,
        "Argument of Periapsis(deg)": 0.0012502735095955685,
        "Eccentricity": 0.0,
        "Inclination(deg)": 60.0,
        "Latitude(deg)": 47.396620923314046,
        "Longitude(deg)": 165.88810517493556,
        "Mean Anomaly(deg)": 121.986773745542,
        "RAAN(deg)": 124.9949594103231,
        "Satellite Name": "Test1 557",
        "Satellite Number": 557,
        "Semi-Major Axis(m)": 6980739.136638005,
        "Time(s)": 120
    },
    {
        "Altitude(m)": 609229.3055564488,
        "Argument of Periapsis(deg)": 0.0013544629687285324,
        "Eccentricity": 0.0,
        "Inclination(deg)": 60.0,
        "Latitude(deg)": 46.97474451418204,
        "Longitude(deg)": 166.51424254029268,
        "Mean Anomaly(deg)": 122.6068798910038,
        "RAAN(deg)": 124.99453936118336,
        "Satellite Name": "Test1 557",
        "Satellite Number": 557,
        "Semi-Major Axis(m)": 6980739.136638005,
        "Time(s)": 130
    },
    {
        "Altitude(m)": 609132.2867847469,
        "Argument of Periapsis(deg)": 0.0014586524278614966,
        "Eccentricity": 0.0,
        "Inclination(deg)": 60.0,
        "Latitude(deg)": 46.54900496806057,
        "Longitude(deg)": 167.1299244488216,
        "Mean Anomaly(deg)": 123.22698603646562,
        "RAAN(deg)": 124.99411931204362,
        "Satellite Name": "Test1 557",
        "Satellite Number": 557,
        "Semi-Major Axis(m)": 6980739.136638005,
        "Time(s)": 140
    },
    {
        "Altitude(m)": 609034.6161541416,
        "Argument of Periapsis(deg)": 0.0015628418869944607,
        "Eccentricity": 0.0,
        "Inclination(deg)": 60.0,
        "Latitude(deg)": 46.119516740789365,
        "Longitude(deg)": 167.7353756563785,
        "Mean Anomaly(deg)": 123.84709218192742,
        "RAAN(deg)": 124.99369926290387,
        "Satellite Name": "Test1 557",
        "Satellite Number": 557,
        "Semi-Major Axis(m)": 6980739.136638005,
        "Time(s)": 150
    },
    {
        "Altitude(m)": 608936.35302155,
        "Argument of Periapsis(deg)": 0.0016670313461274247,
        "Eccentricity": 0.0,
        "Inclination(deg)": 60.0,
        "Latitude(deg)": 45.68639092328999,
        "Longitude(deg)": 168.3308202089043,
        "Mean Anomaly(deg)": 124.46719832738926,
        "RAAN(deg)": 124.99327921376414,
        "Satellite Name": "Test1 557",
        "Satellite Number": 557,
        "Semi-Major Axis(m)": 6980739.136638005,
        "Time(s)": 160
    },
    {
        "Altitude(m)": 608837.5572557256,
        "Argument of Periapsis(deg)": 0.0017712208052603888,
        "Eccentricity": 0.0,
        "Inclination(deg)": 60.0,
        "Latitude(deg)": 45.249735314739226,
        "Longitude(deg)": 168.9164800758429,
        "Mean Anomaly(deg)": 125.08730447285112,
        "RAAN(deg)": 124.99285916462439,
        "Satellite Name": "Test1 557",
        "Satellite Number": 557,
        "Semi-Major Axis(m)": 6980739.136638005,
        "Time(s)": 170
    },
    {
        "Altitude(m)": 608738.2892079132,
        "Argument of Periapsis(deg)": 0.001875410264393353,
        "Eccentricity": 0.0,
        "Inclination(deg)": 60.0,
        "Latitude(deg)": 44.80965449823226,
        "Longitude(deg)": 169.49257533576792,
        "Mean Anomaly(deg)": 125.70741061831295,
        "RAAN(deg)": 124.99243911548466,
        "Satellite Name": "Test1 557",
        "Satellite Number": 557,
        "Semi-Major Axis(m)": 6980739.136638005,
        "Time(s)": 180
    },
    {
        "Altitude(m)": 608638.6096822164,
        "Argument of Periapsis(deg)": 0.0019795997235263173,
        "Eccentricity": 0.0,
        "Inclination(deg)": 60.0,
        "Latitude(deg)": 44.366249918377626,
        "Longitude(deg)": 170.0593243985904,
        "Mean Anomaly(deg)": 126.32751676377478,
        "RAAN(deg)": 124.99201906634491,
        "Satellite Name": "Test1 557",
        "Satellite Number": 557,
        "Semi-Major Axis(m)": 6980739.136638005,
        "Time(s)": 190
    }
]